{"type": "FeatureCollection", "features": [ {"type": "Feature", "properties": {"norad_id": 31041, "name": "FENGYUN 1C DEB", "group": "fengyun-1c-debris", "lat": 12.686418989921355, "lon": -164.93556124891143, "alt_km": 892.6367785996672, "timestamp": "2025-12-10T09:57:44.979499+00:00", "meta": {"OBJECT_NAME": "FENGYUN 1C DEB", "OBJECT_ID": "1999-025BEK", "EPOCH": "2025-12-09T12:50:55.575744", "MEAN_MOTION": 14.17792228, "ECCENTRICITY": 0.0086785, "INCLINATION": 99.2051, "RA_OF_ASC_NODE": 12.0611, "ARG_OF_PERICENTER": 329.5044, "MEAN_ANOMALY": 30.1099, "EPHEMERIS_TYPE": 0, "CLASSIFICATION_TYPE": "U", "NORAD_CAT_ID": 31041, "ELEMENT_SET_NO": 999, "REV_AT_EPOCH": 95444, "BSTAR": 0.0031252, "MEAN_MOTION_DOT": 6.573e-05, "MEAN_MOTION_DDOT": 0}, "tle": {"line1": "1 31041U 99025BEK 25343.53536546  .00006573  00000+0  31252-2 0  9993", "line2": "2 31041  99.2051  12.0611 0086785 329.5044  30.1099 14.17792228954440"}}, "geometry": {"type": "Point", "coordinates": [-164.93556124891143, 12.686418989921355]}}, {"type": "Feature", "properties": {"norad_id": 31043, "name": "FENGYUN 1C DEB", "group": "fengyun-1c-debris", "lat": -72.00366964788579, "lon": 153.93756212055843, "alt_km": 885.3958089801499, "timestamp": "2025-12-10T09:57:44.979509+00:00", "meta": {"OBJECT_NAME": "FENGYUN 1C DEB", "OBJECT_ID": "1999-025BEM", "EPOCH": "2025-12-09T13:00:52.693056", "MEAN_MOTION": 14.08421301, "ECCENTRICITY": 0.00415, "INCLINATION": 98.7645, "RA_OF_ASC_NODE": 1.4425, "ARG_OF_PERICENTER": 13.2345, "MEAN_ANOMALY": 138.3277, "EPHEMERIS_TYPE": 0, "CLASSIFICATION_TYPE": "U", "NORAD_CAT_ID": 31043, "ELEMENT_SET_NO": 999, "REV_AT_EPOCH": 95942, "BSTAR": 0.00068281, "MEAN_MOTION_DOT": 1.136e-05, "MEAN_MOTION_DDOT": 0}, "tle": {"line1": "1 31043U 99025BEM 25343.54227654  .00001136  00000+0  68281-3 0  9996", "line2": "2 31043  98.7645   1.4425 0041500  13.2345 138.3277 14.08421301959420"}}, "geometry": {"type": "Point", "coordinates": [153.93756212055843, -72.00366964788579]}}, {"type": "Feature", "properties": {"norad_id": 31046, "name": "FENGYUN 1C DEB", "group": "fengyun-1c-debris", "lat": -29.464805474876336, "lon": 109.01766977086511, "alt_km": 712.850301796293, "timestamp": "2025-12-10T09:57:44.979519+00:00", "meta": {"OBJECT_NAME": "FENGYUN 1C DEB", "OBJECT_ID": "1999-025BEQ", "EPOCH": "2025-12-09T20:01:02.702784", "MEAN_MOTION": 14.63581667, "ECCENTRICITY": 0.0046934, "INCLINATION": 98.9683, "RA_OF_ASC_NODE": 103.2673, "ARG_OF_PERICENTER": 112.3817, "MEAN_ANOMALY": 38.4826, "EPHEMERIS_TYPE": 0, "CLASSIFICATION_TYPE": "U", "NORAD_CAT_ID": 31046, "ELEMENT_SET_NO": 999, "REV_AT_EPOCH": 96600, "BSTAR": 0.0063201, "MEAN_MOTION_DOT": 0.00033443, "MEAN_MOTION_DDOT": 0}, "tle": {"line1": "1 31046U 99025BEQ 25343.83405906  .00033443  00000+0  63201-2 0  9991", "line2": "2 31046  98.9683 103.2673 0046934 112.3817  38.4826 14.63581667966009"}}, "geometry": {"type": "Point", "coordinates": [109.01766977086511, -29.464805474876336]}}, {"type": "Feature", "properties": {"norad_id": 31047, "name": "FENGYUN 1C DEB", "group": "fengyun-1c-debris", "lat": -0.7591231377316773, "lon": 161.79469165513908, "alt_km": 830.9020539530193, "timestamp": "2025-12-10T09:57:44.979529+00:00", "meta": {"OBJECT_NAME": "FENGYUN 1C DEB", "OBJECT_ID": "1999-025BER", "EPOCH": "2025-12-08T23:24:24.960096", "MEAN_MOTION": 14.13832824, "ECCENTRICITY": 0.0025492, "INCLINATION": 98.6996, "RA_OF_ASC_NODE": 340.51, "ARG_OF_PERICENTER": 188.6365, "MEAN_ANOMALY": 227.7642, "EPHEMERIS_TYPE": 0, "CLASSIFICATION_TYPE": "U", "NORAD_CAT_ID": 31047, "ELEMENT_SET_NO": 999, "REV_AT_EPOCH": 96306, "BSTAR": 0.00057247, "MEAN_MOTION_DOT": 1.045e-05, "MEAN_MOTION_DDOT": 0}, "tle": {"line1": "1 31047U 99025BER 25342.97528889  .00001045  00000+0  57247-3 0  9999", "line2": "2 31047  98.6996 340.5100 0025492 188.6365 227.7642 14.13832824963066"}}, "geometry": {"type": "Point", "coordinates": [161.79469165513908, -0.7591231377316773]}}, {"type": "Feature", "properties": {"norad_id": 31051, "name": "FENGYUN 1C DEB", "group": "fengyun-1c-debris", "lat": 11.874984055522802, "lon": 13.172417880636647, "alt_km": 908.917275406161, "timestamp": "2025-12-10T09:57:44.979539+00:00", "meta": {"OBJECT_NAME": "FENGYUN 1C DEB", "OBJECT_ID": "1999-025BEV", "EPOCH": "2025-11-29T08:36:57.509280", "MEAN_MOTION": 14.03023318, "ECCENTRICITY": 0.00528722, "INCLINATION": 98.8207, "RA_OF_ASC_NODE": 4.3303, "ARG_OF_PERICENTER": 172.6282, "MEAN_ANOMALY": 187.5674, "EPHEMERIS_TYPE": 0, "CLASSIFICATION_TYPE": "U", "NORAD_CAT_ID": 31051, "ELEMENT_SET_NO": 999, "REV_AT_EPOCH": 63631, "BSTAR": 0.00023865273, "MEAN_MOTION_DOT": 3.33e-06, "MEAN_MOTION_DDOT": 0}, "tle": {"line1": "1 31051U 99025BEV 25333.35899895  .00000333  00000+0  23865-3 0  9992", "line2": "2 31051  98.8207   4.3303 0052872 172.6282 187.5674 14.03023318636313"}}, "geometry": {"type": "Point", "coordinates": [13.172417880636647, 11.874984055522802]}}, {"type": "Feature", "properties": {"norad_id": 31053, "name": "FENGYUN 1C DEB", "group": "fengyun-1c-debris", "lat": 64.92819515169415, "lon": -53.58191265894749, "alt_km": 749.5549136128211, "timestamp": "2025-12-10T09:57:44.979549+00:00", "meta": {"OBJECT_NAME": "FENGYUN 1C DEB", "OBJECT_ID": "1999-025BEX", "EPOCH": "2025-12-09T07:15:11.826144", "MEAN_MOTION": 13.75848728, "ECCENTRICITY": 0.0309376, "INCLINATION": 98.7939, "RA_OF_ASC_NODE": 106.0672, "ARG_OF_PERICENTER": 104.1614, "MEAN_ANOMALY": 259.4116, "EPHEMERIS_TYPE": 0, "CLASSIFICATION_TYPE": "U", "NORAD_CAT_ID": 31053, "ELEMENT_SET_NO": 999, "REV_AT_EPOCH": 93429, "BSTAR": 0.0025997, "MEAN_MOTION_DOT": 3.538e-05, "MEAN_MOTION_DDOT": 0}, "tle": {"line1": "1 31053U 99025BEX 25343.30222021  .00003538  00000+0  25997-2 0  9998", "line2": "2 31053  98.7939 106.0672 0309376 104.1614 259.4116 13.75848728934294"}}, "geometry": {"type": "Point", "coordinates": [-53.58191265894749, 64.92819515169415]}}, {"type": "Feature", "properties": {"norad_id": 31054, "name": "FENGYUN 1C DEB", "group": "fengyun-1c-debris", "lat": -47.90386025027763, "lon": 7.263957398864487, "alt_km": 866.3733726733026, "timestamp": "2025-12-10T09:57:44.979559+00:00", "meta": {"OBJECT_NAME": "FENGYUN 1C DEB", "OBJECT_ID": "1999-025BEY", "EPOCH": "2025-12-09T12:48:10.118016", "MEAN_MOTION": 14.1216719, "ECCENTRICITY": 0.00105896, "INCLINATION": 98.6904, "RA_OF_ASC_NODE": 356.6627, "ARG_OF_PERICENTER": 128.8864, "MEAN_ANOMALY": 22.9164, "EPHEMERIS_TYPE": 0, "CLASSIFICATION_TYPE": "U", "NORAD_CAT_ID": 31054, "ELEMENT_SET_NO": 999, "REV_AT_EPOCH": 96718, "BSTAR": 0.00024522794, "MEAN_MOTION_DOT": 4.08e-06, "MEAN_MOTION_DDOT": 0}, "tle": {"line1": "1 31054U 99025BEY 25343.53345044  .00000408  00000+0  24523-3 0  9993", "line2": "2 31054  98.6904 356.6627 0010589 128.8864  22.9164 14.12167190967183"}}, "geometry": {"type": "Point", "coordinates": [7.263957398864487, -47.90386025027763]}}, {"type": "Feature", "properties": {"norad_id": 31055, "name": "FENGYUN 1C DEB", "group": "fengyun-1c-debris", "lat": 81.20769272218537, "lon": -69.81667829209378, "alt_km": 867.7488197206894, "timestamp": "2025-12-10T09:57:44.979569+00:00", "meta": {"OBJECT_NAME": "FENGYUN 1C DEB", "OBJECT_ID": "1999-025BEZ", "EPOCH": "2025-12-09T20:44:34.841760", "MEAN_MOTION": 14.10371659, "ECCENTRICITY": 0.0023981, "INCLINATION": 98.7602, "RA_OF_ASC_NODE": 15.1484, "ARG_OF_PERICENTER": 280.452, "MEAN_ANOMALY": 253.7173, "EPHEMERIS_TYPE": 0, "CLASSIFICATION_TYPE": "U", "NORAD_CAT_ID": 31055, "ELEMENT_SET_NO": 999, "REV_AT_EPOCH": 96081, "BSTAR": 0.00050259, "MEAN_MOTION_DOT": 8.52e-06, "MEAN_MOTION_DDOT": 0}, "tle": {"line1": "1 31055U 99025BEZ 25343.86429215  .00000852  00000+0  50259-3 0  9991", "line2": "2 31055  98.7602  15.1484 0023981 280.4520 253.7173 14.10371659960814"}}, "geometry": {"type": "Point", "coordinates": [-69.81667829209378, 81.20769272218537]}}, {"type": "Feature", "properties": {"norad_id": 31056, "name": "FENGYUN 1C DEB", "group": "fengyun-1c-debris", "lat": 19.268577756540193, "lon": -36.01287630123397, "alt_km": 828.6750463041308, "timestamp": "2025-12-10T09:57:44.979580+00:00", "meta": {"OBJECT_NAME": "FENGYUN 1C DEB", "OBJECT_ID": "1999-025BFA", "EPOCH": "2025-12-09T10:48:53.631936", "MEAN_MOTION": 14.1429842, "ECCENTRICITY": 0.00257375, "INCLINATION": 98.6683, "RA_OF_ASC_NODE": 326.1083, "ARG_OF_PERICENTER": 352.4279, "MEAN_ANOMALY": 159.1427, "EPHEMERIS_TYPE": 0, "CLASSIFICATION_TYPE": "U", "NORAD_CAT_ID": 31056, "ELEMENT_SET_NO": 999, "REV_AT_EPOCH": 96771, "BSTAR": 0.00064514288, "MEAN_MOTION_DOT": 1.194e-05, "MEAN_MOTION_DDOT": 0}, "tle": {"line1": "1 31056U 99025BFA 25343.45062074  .00001194  00000+0  64514-3 0  9992", "line2": "2 31056  98.6683 326.1083 0025737 352.4279 159.1427 14.14298420967710"}}, "geometry": {"type": "Point", "coordinates": [-36.01287630123397, 19.268577756540193]}}, {"type": "Feature", "properties": {"norad_id": 31057, "name": "FENGYUN 1C DEB", "group": "fengyun-1c-debris", "lat": 79.75827282773834, "lon": -41.026108328366924, "alt_km": 719.8749190167991, "timestamp": "2025-12-10T09:57:44.979590+00:00", "meta": {"OBJECT_NAME": "FENGYUN 1C DEB", "OBJECT_ID": "1999-025BFB", "EPOCH": "2025-12-07T08:31:09.738912", "MEAN_MOTION": 14.79274467, "ECCENTRICITY": 0.0137797, "INCLINATION": 99.2572, "RA_OF_ASC_NODE": 19.9678, "ARG_OF_PERICENTER": 268.7892, "MEAN_ANOMALY": 89.7526, "EPHEMERIS_TYPE": 0, "CLASSIFICATION_TYPE": "U", "NORAD_CAT_ID": 31057, "ELEMENT_SET_NO": 999, "REV_AT_EPOCH": 61873, "BSTAR": 0.0014079461, "MEAN_MOTION_DOT": 0.00012236, "MEAN_MOTION_DDOT": 0}, "tle": {"line1": "1 31057U 99025BFB 25341.35497383  .00012236  00000+0  14079-2 0  9994", "line2": "2 31057  99.2572  19.9678 0137797 268.7892  89.7526 14.79274467618731"}}, "geometry": {"type": "Point", "coordinates": [-41.026108328366924, 79.75827282773834]}}]}